start=new Date('2022-03-26T00:00:00.000Z').valueOf();
sats=[{"OBJECT_TYPE":"PAYLOAD","MEAN_MOTION_DOT":"0.00001659","CLASSIFICATION_TYPE":"U","OBJECT_NAME":"STARLINK-2501","BSTAR":"0.00013021000000","NORAD_CAT_ID":"48330","REV_AT_EPOCH":"5020","PERIAPSIS":"546.068","INCLINATION":"53.0536","MEAN_MOTION":"15.06404192","EPHEMERIS_TYPE":"0","OBJECT_ID":"2021-036BG","REF_FRAME":"TEME","ARG_OF_PERICENTER":"63.3735","RCS_SIZE":"LARGE","ELEMENT_SET_NO":"999","MEAN_MOTION_DDOT":"0.0000000000000","APOAPSIS":"548.334","SITE":"AFETR","RA_OF_ASC_NODE":"109.5716","SEMIMAJOR_AXIS":"6925.336","MEAN_ELEMENT_THEORY":"SGP4","DECAY_DATE":null,"ECCENTRICITY":"0.00016360","TLE_LINE2":"2 48330  53.0536 109.5716 0001636  63.3735 296.7421 15.06404192 50204","PERIOD":"95.592","MEAN_ANOMALY":"296.7421","TIME_SYSTEM":"UTC","TLE_LINE1":"1 48330U 21036BG  22084.44676203  .00001659  00000-0  13021-3 0  9999","CENTER_NAME":"EARTH","LAUNCH_DATE":"2021-04-29","COUNTRY_CODE":"US","EPOCH":"2022-03-25T10:43:20.239392","GP_ID":"199662708","FILE":"3373822"},{"FILE":"3374025","CENTER_NAME":"EARTH","EPOCH":"2022-03-25T18:35:44.476512","LAUNCH_DATE":"2021-04-29","COUNTRY_CODE":"US","GP_ID":"199669877","MEAN_ANOMALY":"307.0549","TIME_SYSTEM":"UTC","TLE_LINE1":"1 48331U 21036BH  22084.77482033 -.00000787  00000-0 -33954-4 0  9993","ECCENTRICITY":"0.00017240","DECAY_DATE":null,"TLE_LINE2":"2 48331  53.0553 108.1015 0001724  53.0597 307.0549 15.06394935 50841","PERIOD":"95.592","SEMIMAJOR_AXIS":"6925.364","MEAN_ELEMENT_THEORY":"SGP4","RA_OF_ASC_NODE":"108.1015","APOAPSIS":"548.423","SITE":"AFETR","MEAN_MOTION_DDOT":"0.0000000000000","ELEMENT_SET_NO":"999","RCS_SIZE":"LARGE","OBJECT_ID":"2021-036BH","EPHEMERIS_TYPE":"0","REF_FRAME":"TEME","ARG_OF_PERICENTER":"53.0597","MEAN_MOTION":"15.06394935","NORAD_CAT_ID":"48331","PERIAPSIS":"546.035","REV_AT_EPOCH":"5084","INCLINATION":"53.0553","BSTAR":"-0.00003395400000","CLASSIFICATION_TYPE":"U","MEAN_MOTION_DOT":"-0.00000787","OBJECT_NAME":"STARLINK-2514","OBJECT_TYPE":"PAYLOAD"},{"OBJECT_TYPE":"PAYLOAD","OBJECT_NAME":"STARLINK-2511","MEAN_MOTION_DOT":"0.00005594","CLASSIFICATION_TYPE":"U","BSTAR":"0.00039404000000","INCLINATION":"53.0522","NORAD_CAT_ID":"48332","PERIAPSIS":"545.961","REV_AT_EPOCH":"5084","MEAN_MOTION":"15.06410612","REF_FRAME":"TEME","ARG_OF_PERICENTER":"50.2342","OBJECT_ID":"2021-036BJ","EPHEMERIS_TYPE":"0","RCS_SIZE":"LARGE","ELEMENT_SET_NO":"999","MEAN_MOTION_DDOT":"0.0000000000000","SITE":"AFETR","APOAPSIS":"548.401","RA_OF_ASC_NODE":"108.0971","SEMIMAJOR_AXIS":"6925.316","MEAN_ELEMENT_THEORY":"SGP4","TLE_LINE2":"2 48332  53.0522 108.0971 0001761  50.2342 309.8802 15.06410612 50849","PERIOD":"95.591","DECAY_DATE":null,"ECCENTRICITY":"0.00017610","TLE_LINE1":"1 48332U 21036BJ  22084.77386574  .00005594  00000-0  39404-3 0  9991","TIME_SYSTEM":"UTC","MEAN_ANOMALY":"309.8802","COUNTRY_CODE":"US","LAUNCH_DATE":"2021-04-29","EPOCH":"2022-03-25T18:34:21.999936","GP_ID":"199668528","CENTER_NAME":"EARTH","FILE":"3373971"},{"OBJECT_TYPE":"PAYLOAD","MEAN_MOTION_DOT":"0.00000925","CLASSIFICATION_TYPE":"U","OBJECT_NAME":"STARLINK-2518","BSTAR":"0.00008097000000","NORAD_CAT_ID":"48333","PERIAPSIS":"546.026","REV_AT_EPOCH":"5020","INCLINATION":"53.0525","MEAN_MOTION":"15.06400178","EPHEMERIS_TYPE":"0","OBJECT_ID":"2021-036BK","REF_FRAME":"TEME","ARG_OF_PERICENTER":"51.7887","RCS_SIZE":"LARGE","ELEMENT_SET_NO":"999","MEAN_MOTION_DDOT":"0.0000000000000","SITE":"AFETR","APOAPSIS":"548.400","RA_OF_ASC_NODE":"109.6094","MEAN_ELEMENT_THEORY":"SGP4","SEMIMAJOR_AXIS":"6925.348","ECCENTRICITY":"0.00017140","DECAY_DATE":null,"TLE_LINE2":"2 48333  53.0525 109.6094 0001714  51.7887 308.3256 15.06400178 50207","PERIOD":"95.592","TIME_SYSTEM":"UTC","MEAN_ANOMALY":"308.3256","TLE_LINE1":"1 48333U 21036BK  22084.43571299  .00000925  00000-0  80970-4 0  9993","CENTER_NAME":"EARTH","COUNTRY_CODE":"US","LAUNCH_DATE":"2021-04-29","EPOCH":"2022-03-25T10:27:25.602336","GP_ID":"199662458","FILE":"3373822"},{"PERIOD":"95.592","TLE_LINE2":"2 48334  53.0533 109.6277 0001796  57.8202 302.2961 15.06405689 50206","DECAY_DATE":null,"ECCENTRICITY":"0.00017960","TLE_LINE1":"1 48334U 21036BL  22084.43202024 -.00000152  00000-0  86817-5 0  9991","MEAN_ANOMALY":"302.2961","TIME_SYSTEM":"UTC","GP_ID":"199663209","COUNTRY_CODE":"US","LAUNCH_DATE":"2021-04-29","EPOCH":"2022-03-25T10:22:06.548736","CENTER_NAME":"EARTH","FILE":"3373822","MEAN_MOTION_DDOT":"0.0000000000000","SITE":"AFETR","APOAPSIS":"548.440","RA_OF_ASC_NODE":"109.6277","SEMIMAJOR_AXIS":"6925.331","MEAN_ELEMENT_THEORY":"SGP4","MEAN_MOTION":"15.06405689","ARG_OF_PERICENTER":"57.8202","REF_FRAME":"TEME","OBJECT_ID":"2021-036BL","EPHEMERIS_TYPE":"0","RCS_SIZE":"LARGE","ELEMENT_SET_NO":"999","OBJECT_TYPE":"PAYLOAD","MEAN_MOTION_DOT":"-0.00000152","CLASSIFICATION_TYPE":"U","OBJECT_NAME":"STARLINK-2470","BSTAR":"0.00000868170000","INCLINATION":"53.0533","PERIAPSIS":"545.952","REV_AT_EPOCH":"5020","NORAD_CAT_ID":"48334"},{"ELEMENT_SET_NO":"999","RCS_SIZE":"LARGE","ARG_OF_PERICENTER":"71.6318","REF_FRAME":"TEME","EPHEMERIS_TYPE":"0","OBJECT_ID":"2021-036BM","MEAN_MOTION":"15.06392123","INCLINATION":"53.0545","NORAD_CAT_ID":"48335","PERIAPSIS":"546.245","REV_AT_EPOCH":"5019","BSTAR":"0.00008118600000","MEAN_MOTION_DOT":"0.00000928","CLASSIFICATION_TYPE":"U","OBJECT_NAME":"STARLINK-2441","OBJECT_TYPE":"PAYLOAD","FILE":"3373822","COUNTRY_CODE":"US","LAUNCH_DATE":"2021-04-29","EPOCH":"2022-03-25T08:41:16.312704","GP_ID":"199662959","CENTER_NAME":"EARTH","TLE_LINE1":"1 48335U 21036BM  22084.36199436  .00000928  00000-0  81186-4 0  9999","MEAN_ANOMALY":"288.4827","TIME_SYSTEM":"UTC","TLE_LINE2":"2 48335  53.0545 109.9552 0001434  71.6318 288.4827 15.06392123 50192","PERIOD":"95.593","DECAY_DATE":null,"ECCENTRICITY":"0.00014340","SEMIMAJOR_AXIS":"6925.373","MEAN_ELEMENT_THEORY":"SGP4","RA_OF_ASC_NODE":"109.9552","APOAPSIS":"548.231","SITE":"AFETR","MEAN_MOTION_DDOT":"0.0000000000000"},{"SEMIMAJOR_AXIS":"6925.366","MEAN_ELEMENT_THEORY":"SGP4","RA_OF_ASC_NODE":"9.3349","APOAPSIS":"548.628","SITE":"AFETR","MEAN_MOTION_DDOT":"0.0000000000000","FILE":"3373822","CENTER_NAME":"EARTH","GP_ID":"199662460","COUNTRY_CODE":"US","LAUNCH_DATE":"2021-05-04","EPOCH":"2022-03-25T12:00:18.140544","MEAN_ANOMALY":"311.7430","TIME_SYSTEM":"UTC","TLE_LINE1":"1 48353U 21038A   22084.50020996  .00000287  00000-0  38159-4 0  9991","DECAY_DATE":null,"ECCENTRICITY":"0.00020170","PERIOD":"95.592","TLE_LINE2":"2 48353  53.0561   9.3349 0002017  48.3731 311.7430 15.06394352 49201","REV_AT_EPOCH":"4920","PERIAPSIS":"545.834","NORAD_CAT_ID":"48353","INCLINATION":"53.0561","BSTAR":"0.00003815900000","CLASSIFICATION_TYPE":"U","MEAN_MOTION_DOT":"0.00000287","OBJECT_NAME":"STARLINK-2613","OBJECT_TYPE":"PAYLOAD","ELEMENT_SET_NO":"999","RCS_SIZE":"LARGE","EPHEMERIS_TYPE":"0","OBJECT_ID":"2021-038A","REF_FRAME":"TEME","ARG_OF_PERICENTER":"48.3731","MEAN_MOTION":"15.06394352"},{"TLE_LINE2":"2 48354  53.0574  10.8381 0001673  55.7278 304.3870 15.06391300 49749","PERIOD":"95.593","ECCENTRICITY":"0.00016730","DECAY_DATE":null,"TLE_LINE1":"1 48354U 21038B   22084.16479405  .00000307  00000-0  39500-4 0  9991","MEAN_ANOMALY":"304.3870","TIME_SYSTEM":"UTC","COUNTRY_CODE":"US","LAUNCH_DATE":"2021-05-04","EPOCH":"2022-03-25T03:57:18.205920","GP_ID":"199669833","CENTER_NAME":"EARTH","FILE":"3373994","MEAN_MOTION_DDOT":"0.0000000000000","APOAPSIS":"548.399","SITE":"AFETR","RA_OF_ASC_NODE":"10.8381","SEMIMAJOR_AXIS":"6925.375","MEAN_ELEMENT_THEORY":"SGP4","MEAN_MOTION":"15.06391300","REF_FRAME":"TEME","ARG_OF_PERICENTER":"55.7278","OBJECT_ID":"2021-038B","EPHEMERIS_TYPE":"0","RCS_SIZE":"LARGE","ELEMENT_SET_NO":"999","OBJECT_TYPE":"PAYLOAD","MEAN_MOTION_DOT":"0.00000307","CLASSIFICATION_TYPE":"U","OBJECT_NAME":"STARLINK-2674","BSTAR":"0.00003950000000","INCLINATION":"53.0574","NORAD_CAT_ID":"48354","PERIAPSIS":"546.082","REV_AT_EPOCH":"4974"},{"MEAN_MOTION":"15.06400306","EPHEMERIS_TYPE":"0","OBJECT_ID":"2021-038C","REF_FRAME":"TEME","ARG_OF_PERICENTER":"62.6004","RCS_SIZE":"LARGE","ELEMENT_SET_NO":"999","OBJECT_TYPE":"PAYLOAD","CLASSIFICATION_TYPE":"U","MEAN_MOTION_DOT":"0.00001935","OBJECT_NAME":"STARLINK-2635","BSTAR":"0.00014879000000","PERIAPSIS":"546.128","REV_AT_EPOCH":"4920","NORAD_CAT_ID":"48355","INCLINATION":"53.0560","ECCENTRICITY":"0.00015660","DECAY_DATE":null,"PERIOD":"95.592","TLE_LINE2":"2 48355  53.0560   9.3627 0001566  62.6004 297.5145 15.06400306 49202","MEAN_ANOMALY":"297.5145","TIME_SYSTEM":"UTC","TLE_LINE1":"1 48355U 21038C   22084.49283801  .00001935  00000-0  14879-3 0  9990","CENTER_NAME":"EARTH","GP_ID":"199662961","COUNTRY_CODE":"US","LAUNCH_DATE":"2021-05-04","EPOCH":"2022-03-25T11:49:41.204064","FILE":"3373822","MEAN_MOTION_DDOT":"0.0000000000000","SITE":"AFETR","APOAPSIS":"548.297","RA_OF_ASC_NODE":"9.3627","SEMIMAJOR_AXIS":"6925.348","MEAN_ELEMENT_THEORY":"SGP4"},{"OBJECT_ID":"2021-038D","EPHEMERIS_TYPE":"0","REF_FRAME":"TEME","ARG_OF_PERICENTER":"53.2458","MEAN_MOTION":"15.06394888","ELEMENT_SET_NO":"999","RCS_SIZE":"LARGE","MEAN_MOTION_DOT":"-0.00000312","OBJECT_NAME":"STARLINK-2637","CLASSIFICATION_TYPE":"U","OBJECT_TYPE":"PAYLOAD","PERIAPSIS":"545.877","REV_AT_EPOCH":"4920","NORAD_CAT_ID":"48356","INCLINATION":"53.0557","BSTAR":"-0.00000206830000","MEAN_ANOMALY":"306.8710","TIME_SYSTEM":"UTC","TLE_LINE1":"1 48356U 21038D   22084.48915163 -.00000312  00000-0 -20683-5 0  9995","ECCENTRICITY":"0.00019530","DECAY_DATE":null,"PERIOD":"95.592","TLE_LINE2":"2 48356  53.0557   9.3883 0001953  53.2458 306.8710 15.06394888 49201","FILE":"3373822","CENTER_NAME":"EARTH","GP_ID":"199661710","EPOCH":"2022-03-25T11:44:22.700832","LAUNCH_DATE":"2021-05-04","COUNTRY_CODE":"US","APOAPSIS":"548.582","SITE":"AFETR","MEAN_MOTION_DDOT":"0.0000000000000","MEAN_ELEMENT_THEORY":"SGP4","SEMIMAJOR_AXIS":"6925.364","RA_OF_ASC_NODE":"9.3883"}];
